NORAD_CAT_ID,OBJECT_NAME,OBJECT_TYPE,EPOCH,MEAN_MOTION,ECCENTRICITY,INCLINATION,RA_OF_ASC_NODE,ARG_OF_PERICENTER,MEAN_ANOMALY,BSTAR,MEAN_MOTION_DOT,MEAN_MOTION_DDOT,TLE_LINE0,TLE_LINE1,TLE_LINE2,SEMIMAJOR_AXIS,PERIOD,APOGEE,PERIGEE,DECAYED
51737.0,STARLINK-3509,PAYLOAD,2023-11-04 23:11:50,15.08844178,0.00013,53.214,200.6093,96.2568,263.8573,0.00026303,3.901e-05,0.0,0 STARLINK-3509,1 51737U 22016Z   23308.96656172  .00003901  00000-0  26303-3 0  9992,2 51737  53.2140 200.6093 0001300  96.2568 263.8573 15.08844178 94373,6917.868,95.437,540.632,538.833,0.0
51737.0,STARLINK-3509,PAYLOAD,2023-11-05 10:19:32,15.08853972,0.0001314,53.2138,198.5282,100.8458,259.2682,0.00051243,7.88e-05,0.0,0 STARLINK-3509,1 51737U 22016Z   23309.43023901  .00007880  00000-0  51243-3 0  9994,2 51737  53.2138 198.5282 0001314 100.8458 259.2682 15.08853972 94440,6917.838,95.437,540.612,538.794,0.0
51737.0,STARLINK-3509,PAYLOAD,2023-11-05 23:02:36,15.0888143,0.0001624,53.2147,196.1492,99.7636,260.3539,0.0011894,0.00018713,0.0,0 STARLINK-3509,1 51737U 22016Z   23309.96014828  .00018713  00000-0  11894-2 0  9994,2 51737  53.2147 196.1492 0001624  99.7636 260.3539 15.08881430 94528,6917.754,95.435,540.742,538.495,0.0
51737.0,STARLINK-3509,PAYLOAD,2023-11-06 02:13:22,15.08899252,0.000155,53.215,195.5545,91.8491,268.2679,0.0017569,0.00027829,0.0,0 STARLINK-3509,1 51737U 22016Z   23310.09262282  .00027829  00000-0  17569-2 0  9992,2 51737  53.2150 195.5545 0001550  91.8491 268.2679 15.08899252 95607,6917.699,95.434,540.637,538.492,0.0
51737.0,STARLINK-3509,PAYLOAD,2023-11-06 19:42:37,15.08842195,0.0001219,53.2138,192.2828,115.8369,244.2749,-0.00014443,-2.586e-05,0.0,0 STARLINK-3509,1 51737U 22016Z   23310.82126988 -.00002586  00000-0 -14443-3 0  9999,2 51737  53.2138 192.2828 0001219 115.8369 244.2749 15.08842195 95712,6917.874,95.437,540.582,538.895,0.0
51737.0,STARLINK-3509,PAYLOAD,2023-11-06 21:18:01,15.08791749,0.0001253,53.2157,191.9872,62.3692,297.7427,-0.0020635,-0.00032935,0.0,0 STARLINK-3509,1 51737U 22016Z   23310.88751493 -.00032935  00000-0 -20635-2 0  9990,2 51737  53.2157 191.9872 0001253  62.3692 297.7427 15.08791749 94668,6918.028,95.441,540.76,539.026,0.0
51737.0,STARLINK-3509,PAYLOAD,2023-11-07 02:04:11,15.08786671,0.0001331,53.2147,191.0933,89.1142,271.0003,-0.0014393,-0.00023088,0.0,0 STARLINK-3509,1 51737U 22016Z   23311.08624215 -.00023088  00000-0 -14393-2 0  9997,2 51737  53.2147 191.0933 0001331  89.1142 271.0003 15.08786671 95754,6918.043,95.441,540.829,538.988,0.0
51737.0,STARLINK-3509,PAYLOAD,2023-11-07 19:33:28,15.08791805,0.0001182,53.2162,187.8266,70.6182,289.4938,0.00059708,9.215e-05,0.0,0 STARLINK-3509,1 51737U 22016Z   23311.81491034  .00009215  00000-0  59708-3 0  9993,2 51737  53.2162 187.8266 0001182  70.6182 289.4938 15.08791805 95863,6918.028,95.441,540.71,539.075,0.0
51737.0,STARLINK-3509,PAYLOAD,2023-11-08 01:55:01,15.08814171,0.0001395,53.2155,186.6351,100.2863,259.8287,0.0020396,0.00032298,0.0,0 STARLINK-3509,1 51737U 22016Z   23312.07987467  .00032298  00000-0  20396-2 0  9999,2 51737  53.2155 186.6351 0001395 100.2863 259.8287 15.08814171 95904,6917.959,95.439,540.789,538.859,0.0
51737.0,STARLINK-3509,PAYLOAD,2023-11-08 19:24:15,15.08865269,0.0001316,53.2154,183.3648,105.7513,254.3625,0.0015471,0.00024437,0.0,0 STARLINK-3509,1 51737U 22016Z   23312.80850723  .00024437  00000-0  15471-2 0  9998,2 51737  53.2154 183.3648 0001316 105.7513 254.3625 15.08865269 96014,6917.803,95.436,540.579,538.758,0.0
51737.0,STARLINK-3509,PAYLOAD,2023-11-08 22:35:01,15.0887125,0.000132,53.2155,182.7702,105.67,254.4438,0.0015527,0.00024531,0.0,0 STARLINK-3509,1 51737U 22016Z   23312.94098476  .00024531  00000-0  15527-2 0  9999,2 51737  53.2155 182.7702 0001320 105.6700 254.4438 15.08871250 94974,6917.785,95.436,540.563,538.737,0.0
51737.0,STARLINK-3509,PAYLOAD,2023-11-09 19:14:59,15.08897474,0.0001766,53.2155,178.9084,123.237,236.8792,0.0014332,0.00022631,0.0,0 STARLINK-3509,1 51737U 22016Z   23313.80208170  .00022631  00000-0  14332-2 0  9991,2 51737  53.2155 178.9084 0001766 123.2370 236.8792 15.08897474 96163,6917.705,95.434,540.791,538.348,0.0
51737.0,STARLINK-3509,PAYLOAD,2023-11-09 22:25:45,15.08903412,0.0001345,53.2149,178.3097,85.4109,274.7037,0.0014179,0.00022389,0.0,0 STARLINK-3509,1 51737U 22016Z   23313.93455768  .00022389  00000-0  14179-2 0  9991,2 51737  53.2149 178.3097 0001345  85.4109 274.7037 15.08903412 95124,6917.687,95.434,540.482,538.621,0.0
51737.0,STARLINK-3509,PAYLOAD,2023-11-10 07:58:04,15.08869964,0.0001467,53.2148,176.525,83.6147,276.5013,0.00084375,0.00013177,0.0,0 STARLINK-3509,1 51737U 22016Z   23314.33199348  .00013177  00000-0  84375-3 0  9996,2 51737  53.2148 176.5250 0001467  83.6147 276.5013 15.08869964 96242,6917.789,95.436,540.669,538.639,0.0
51737.0,STARLINK-3509,PAYLOAD,2023-11-10 19:05:46,15.0881849,9.44e-05,53.2142,174.4445,103.4645,256.6452,0.00027898,4.152e-05,0.0,0 STARLINK-3509,1 51737U 22016Z   23314.79567996  .00004152  00000-0  27898-3 0  9994,2 51737  53.2142 174.4445 0000944 103.4645 256.6452 15.08818490 96314,6917.946,95.439,540.464,539.158,0.0
51737.0,STARLINK-3509,PAYLOAD,2023-11-10 22:16:32,15.08826433,9.81e-05,53.2144,173.8493,102.055,258.0552,-0.00050273,-8.277e-05,0.0,0 STARLINK-3509,1 51737U 22016Z   23314.92815962 -.00008277  00000-0 -50273-3 0  9995,2 51737  53.2144 173.8493 0000981 102.0550 258.0552 15.08826433 95270,6917.922,95.438,540.466,539.108,0.0
51737.0,STARLINK-3509,PAYLOAD,2023-11-10 23:51:56,15.08826292,9.67e-05,53.2143,173.5519,101.2697,258.8404,-0.00031524,-5.299e-05,0.0,0 STARLINK-3509,1 51737U 22016Z   23314.99440068 -.00005299  00000-0 -31524-3 0  9992,2 51737  53.2143 173.5519 0000967 101.2697 258.8404 15.08826292 95280,6917.922,95.438,540.456,539.118,0.0
51737.0,STARLINK-3509,PAYLOAD,2023-11-11 20:31:57,15.08836526,9.02e-05,53.2139,169.6856,96.9031,263.2063,0.00084122,0.00013124,0.0,0 STARLINK-3509,1 51737U 22016Z   23315.85553103  .00013124  00000-0  84122-3 0  9999,2 51737  53.2139 169.6856 0000902  96.9031 263.2063 15.08836526 96470,6917.891,95.438,540.38,539.132,0.0
51737.0,STARLINK-3509,PAYLOAD,2023-11-11 22:07:21,15.0883689,8.76e-05,53.2139,169.3881,97.1206,262.9885,0.0007559,0.00011762,0.0,0 STARLINK-3509,1 51737U 22016Z   23315.92177088  .00011762  00000-0  75590-3 0  9996,2 51737  53.2139 169.3881 0000876  97.1206 262.9885 15.08836890 95428,6917.89,95.438,540.361,539.149,0.0
51737.0,STARLINK-3509,PAYLOAD,2023-11-12 07:39:40,15.08835745,8.7e-05,53.2136,167.6036,91.4574,268.6518,0.00041973,6.398e-05,0.0,0 STARLINK-3509,1 51737U 22016Z   23316.31921300  .00006398  00000-0  41973-3 0  9991,2 51737  53.2136 167.6036 0000870  91.4574 268.6518 15.08835745 96545,6917.893,95.438,540.36,539.157,0.0
51737.0,STARLINK-3509,PAYLOAD,2023-11-12 20:22:45,15.08843725,8.76e-05,53.2138,165.2238,93.5732,266.5361,0.00049596,7.615e-05,0.0,0 STARLINK-3509,1 51737U 22016Z   23316.84913325  .00007615  00000-0  49596-3 0  9999,2 51737  53.2138 165.2238 0000876  93.5732 266.5361 15.08843725 95561,6917.869,95.437,540.34,539.128,0.0
51737.0,STARLINK-3509,PAYLOAD,2023-11-13 07:30:27,15.0884707,8.53e-05,53.2133,163.1416,92.7999,267.3091,0.00046651,7.146e-05,0.0,0 STARLINK-3509,1 51737U 22016Z   23317.31281250  .00007146  00000-0  46651-3 0  9995,2 51737  53.2133 163.1416 0000853  92.7999 267.3091 15.08847070 95636,6917.859,95.437,540.314,539.134,0.0
51737.0,STARLINK-3509,PAYLOAD,2023-11-13 20:13:32,15.08844434,9.04e-05,53.2132,160.7627,90.3768,269.7327,0.00026908,3.998e-05,0.0,0 STARLINK-3509,1 51737U 22016Z   23317.84273248  .00003998  00000-0  26908-3 0  9995,2 51737  53.2132 160.7627 0000904  90.3768 269.7327 15.08844434 96772,6917.867,95.437,540.357,539.106,0.0
51737.0,STARLINK-3509,PAYLOAD,2023-11-14 20:04:19,15.08843865,9.67e-05,53.2141,156.3016,90.5394,269.5708,0.00013992,1.94e-05,0.0,0 STARLINK-3509,1 51737U 22016Z   23318.83633184  .00001940  00000-0  13992-3 0  9998,2 51737  53.2141 156.3016 0000967  90.5394 269.5708 15.08843865 96926,6917.869,95.437,540.403,539.065,0.0
51737.0,STARLINK-3509,PAYLOAD,2023-11-15 13:33:33,15.08842588,0.0001121,53.2134,153.0334,89.1266,270.9854,8.7969e-05,1.113e-05,0.0,0 STARLINK-3509,1 51737U 22016Z   23319.56497214  .00001113  00000-0  87969-4 0  9999,2 51737  53.2134 153.0334 0001121  89.1266 270.9854 15.08842588 95973,6917.872,95.437,540.513,538.962,0.0
51737.0,STARLINK-3509,PAYLOAD,2023-11-15 19:55:06,15.08840988,6.18e-05,53.2159,151.8421,81.0377,279.0685,8.8326e-05,1.118e-05,0.0,0 STARLINK-3509,1 51737U 22016Z   23319.82993249  .00001118  00000-0  88326-4 0  9990,2 51737  53.2159 151.8421 0000618  81.0377 279.0685 15.08840988 97074,6917.877,95.437,540.17,539.315,0.0
51737.0,STARLINK-3509,PAYLOAD,2023-11-16 13:24:20,15.08838056,8.76e-05,53.2144,148.5703,86.0938,274.0154,1.44e-05,-5.9e-07,0.0,0 STARLINK-3509,1 51737U 22016Z   23320.55857421 -.00000059  00000-0  14400-4 0  9999,2 51737  53.2144 148.5703 0000876  86.0938 274.0154 15.08838056 96122,6917.886,95.438,540.357,539.145,0.0
51737.0,STARLINK-3509,PAYLOAD,2023-11-17 05:18:12,15.08835993,0.0001223,53.2142,145.5975,92.304,267.8092,2.9337e-05,1.79e-06,0.0,0 STARLINK-3509,1 51737U 22016Z   23321.22097682  .00000179  00000-0  29337-4 0  9996,2 51737  53.2142 145.5975 0001223  92.3040 267.8092 15.08835993 97285,6917.893,95.438,540.604,538.912,0.0
51737.0,STARLINK-3509,PAYLOAD,2023-11-17 13:15:07,15.08838777,0.0001143,53.2151,144.1113,94.6221,265.4901,8.9673e-05,1.14e-05,0.0,0 STARLINK-3509,1 51737U 22016Z   23321.55217581  .00001140  00000-0  89673-4 0  9992,2 51737  53.2151 144.1113 0001143  94.6221 265.4901 15.08838777 96275,6917.884,95.438,540.54,538.958,0.0
51737.0,STARLINK-3509,PAYLOAD,2023-11-17 21:12:03,15.08839672,0.0001143,53.2151,142.6246,93.9332,266.1791,8.8693e-05,1.124e-05,0.0,0 STARLINK-3509,1 51737U 22016Z   23321.88337565  .00001124  00000-0  88693-4 0  9996,2 51737  53.2151 142.6246 0001143  93.9332 266.1791 15.08839672 96326,6917.881,95.438,540.537,538.956,0.0
